NORAD_CAT_ID,OBJECT_NAME,OBJECT_TYPE,EPOCH,MEAN_MOTION,ECCENTRICITY,INCLINATION,RA_OF_ASC_NODE,ARG_OF_PERICENTER,MEAN_ANOMALY,BSTAR,MEAN_MOTION_DOT,MEAN_MOTION_DDOT,TLE_LINE0,TLE_LINE1,TLE_LINE2,SEMIMAJOR_AXIS,PERIOD,APOGEE,PERIGEE,DECAYED
54008.0,STARLINK-5145,PAYLOAD,2024-05-10 13:31:23,15.08846991,0.0002187,53.217,323.0939,74.6817,285.4417,0.00013968,1.936e-05,0.0,0 STARLINK-5145,1 54008U 22125AW  24131.56346125  .00001936  00000-0  13968-3 0  9991,2 54008  53.2170 323.0939 0002187  74.6817 285.4417 15.08846991 88791,6917.859,95.437,541.237,538.211,0.0
54008.0,STARLINK-5145,PAYLOAD,2024-05-10 18:17:32,15.0883908,0.000141,53.2191,322.2052,97.7252,262.39,-2.7334e-06,-3.31e-06,0.0,0 STARLINK-5145,1 54008U 22125AW  24131.76218206 -.00000331  00000-0 -27334-5 0  9995,2 54008  53.2191 322.2052 0001410  97.7252 262.3900 15.08839080 88824,6917.883,95.438,540.724,538.773,0.0
54008.0,STARLINK-5145,PAYLOAD,2024-05-11 19:43:41,15.08760333,0.000162,53.2167,317.4446,119.1715,240.9439,-0.0032803,-0.00052004,0.0,0 STARLINK-5145,1 54008U 22125AW  24132.82200273 -.00052004  00000-0 -32803-2 0  9996,2 54008  53.2167 317.4446 0001620 119.1715 240.9439 15.08760333 88986,6918.124,95.443,541.11,538.868,0.0
54008.0,STARLINK-5145,PAYLOAD,2024-05-11 21:19:05,15.08767717,0.0001755,53.2171,317.1446,62.7198,297.3973,-0.0019522,-0.00031162,0.0,0 STARLINK-5145,1 54008U 22125AW  24132.88826196 -.00031162  00000-0 -19522-2 0  9995,2 54008  53.2171 317.1446 0001755  62.7198 297.3973 15.08767717 88943,6918.101,95.442,541.18,538.752,0.0
54008.0,STARLINK-5145,PAYLOAD,2024-05-12 11:37:38,15.08763659,0.0001629,53.2183,314.4772,68.3095,291.807,-0.0010772,-0.00017355,0.0,0 STARLINK-5145,1 54008U 22125AW  24133.48446812 -.00017355  00000-0 -10772-2 0  9991,2 54008  53.2183 314.4772 0001629  68.3095 291.8070 15.08763659 89080,6918.114,95.442,541.106,538.852,0.0
54008.0,STARLINK-5145,PAYLOAD,2024-05-12 21:09:56,15.08822359,0.0001286,53.2165,312.688,124.6045,235.5068,0.0024677,0.00039185,0.0,0 STARLINK-5145,1 54008U 22125AW  24133.88190597  .00039185  00000-0  24677-2 0  9993,2 54008  53.2165 312.6880 0001286 124.6045 235.5068 15.08822359 89142,6917.934,95.439,540.689,538.91,0.0
54008.0,STARLINK-5145,PAYLOAD,2024-05-13 11:28:24,15.08863059,0.0001254,53.2172,310.0133,103.7484,256.3648,0.00082272,0.00012838,0.0,0 STARLINK-5145,1 54008U 22125AW  24134.47805750  .00012838  00000-0  82272-3 0  9995,2 54008  53.2172 310.0133 0001254 103.7484 256.3648 15.08863059 89184,6917.81,95.436,540.542,538.807,0.0
54008.0,STARLINK-5145,PAYLOAD,2024-05-13 17:49:56,15.08872814,0.0001198,53.2168,308.8239,99.6422,260.4706,0.00072316,0.0001125,0.0,0 STARLINK-5145,1 54008U 22125AW  24134.74301034  .00011250  00000-0  72316-3 0  9996,2 54008  53.2168 308.8239 0001198  99.6422 260.4706 15.08872814 89228,6917.78,95.435,540.474,538.816,0.0
54008.0,STARLINK-5145,PAYLOAD,2024-05-14 04:57:37,15.08876186,0.0001054,53.2161,306.7411,104.5025,255.6084,0.00051716,7.96e-05,0.0,0 STARLINK-5145,1 54008U 22125AW  24135.20667992  .00007960  00000-0  51716-3 0  9990,2 54008  53.2161 306.7411 0001054 104.5025 255.6084 15.08876186 89340,6917.77,95.435,540.364,538.906,0.0
54008.0,STARLINK-5145,PAYLOAD,2024-05-14 17:40:40,15.08904999,7.28e-05,53.2159,304.3604,122.0682,238.0381,0.001034,0.00016236,0.0,0 STARLINK-5145,1 54008U 22125AW  24135.73657682  .00016236  00000-0  10340-2 0  9996,2 54008  53.2159 304.3604 0000728 122.0682 238.0381 15.08904999 89424,6917.682,95.433,540.05,539.043,0.0
54008.0,STARLINK-5145,PAYLOAD,2024-05-15 14:20:39,15.0887741,7.62e-05,53.2143,300.494,77.1917,282.9161,0.0005423,8.362e-05,0.0,0 STARLINK-5145,1 54008U 22125AW  24136.59768252  .00008362  00000-0  54230-3 0  9995,2 54008  53.2143 300.4940 0000762  77.1917 282.9161 15.08877410 89506,6917.766,95.435,540.158,539.104,0.0
54008.0,STARLINK-5145,PAYLOAD,2024-05-15 15:56:02,15.08874175,5.32e-05,53.2148,300.1956,69.5542,290.5507,0.00050788,7.812e-05,0.0,0 STARLINK-5145,1 54008U 22125AW  24136.66392152  .00007812  00000-0  50788-3 0  9998,2 54008  53.2148 300.1956 0000532  69.5542 290.5507 15.08874175 89569,6917.776,95.435,540.009,539.273,0.0
54008.0,STARLINK-5145,PAYLOAD,2024-05-16 11:00:41,15.08827318,0.0001887,53.2174,296.6285,104.571,255.5492,0.00056586,8.726e-05,0.0,0 STARLINK-5145,1 54008U 22125AW  24137.45881377  .00008726  00000-0  56586-3 0  9995,2 54008  53.2174 296.6285 0001887 104.5710 255.5492 15.08827318 89687,6917.919,95.438,541.09,538.479,0.0
54008.0,STARLINK-5145,PAYLOAD,2024-05-16 17:22:14,15.08827601,0.0001212,53.2168,295.4393,72.4469,287.6656,0.0011001,0.00017257,0.0,0 STARLINK-5145,1 54008U 22125AW  24137.72377992  .00017257  00000-0  11001-2 0  9999,2 54008  53.2168 295.4393 0001212  72.4469 287.6656 15.08827601 89675,6917.918,95.438,540.622,538.945,0.0
54008.0,STARLINK-5145,PAYLOAD,2024-05-17 02:54:33,15.08830889,7.9e-05,53.2137,293.6553,47.4887,312.6172,0.00053057,8.164e-05,0.0,0 STARLINK-5145,1 54008U 22125AW  24138.12122239  .00008164  00000-0  53057-3 0  9991,2 54008  53.2137 293.6553 0000790  47.4887 312.6172 15.08830889 89781,6917.908,95.438,540.32,539.227,0.0
54008.0,STARLINK-5145,PAYLOAD,2024-05-17 10:51:30,15.08813474,0.0002033,53.2172,292.1711,85.5514,274.571,0.00010649,1.406e-05,0.0,0 STARLINK-5145,1 54008U 22125AW  24138.45243409  .00001406  00000-0  10649-3 0  9992,2 54008  53.2172 292.1711 0002033  85.5514 274.5710 15.08813474 89833,6917.961,95.439,541.233,538.42,0.0
54008.0,STARLINK-5145,PAYLOAD,2024-05-17 17:13:03,15.08817852,9.97e-05,53.216,290.9786,33.9918,326.1138,0.00036787,5.568e-05,0.0,0 STARLINK-5145,1 54008U 22125AW  24138.71739766  .00005568  00000-0  36787-3 0  9991,2 54008  53.2160 290.9786 0000997  33.9918 326.1138 15.08817852 89821,6917.948,95.439,540.503,539.123,0.0
54008.0,STARLINK-5145,PAYLOAD,2024-05-18 02:45:22,15.08830075,0.0001539,53.2141,289.1947,76.9856,283.1308,0.00046747,7.158e-05,0.0,0 STARLINK-5145,1 54008U 22125AW  24139.11484029  .00007158  00000-0  46747-3 0  9999,2 54008  53.2141 289.1947 0001539  76.9856 283.1308 15.08830075 89935,6917.911,95.438,540.84,538.711,0.0
54008.0,STARLINK-5145,PAYLOAD,2024-05-18 10:42:17,15.08854316,0.0001078,53.2131,287.7048,49.5174,310.5912,0.0010018,0.00015698,0.0,0 STARLINK-5145,1 54008U 22125AW  24139.44603425  .00015698  00000-0  10018-2 0  9997,2 54008  53.2131 287.7048 0001078  49.5174 310.5912 15.08854316 89982,6917.837,95.437,540.447,538.956,0.0
54008.0,STARLINK-5145,PAYLOAD,2024-05-18 13:53:03,15.08870081,0.0001223,53.2148,287.1132,102.1372,257.9757,0.0015335,0.00024222,0.0,0 STARLINK-5145,1 54008U 22125AW  24139.57850815  .00024222  00000-0  15335-2 0  9998,2 54008  53.2148 287.1132 0001223 102.1372 257.9757 15.08870081 89951,6917.788,95.436,540.499,538.807,0.0
54008.0,STARLINK-5145,PAYLOAD,2024-05-18 20:14:34,15.0889978,9.37e-05,53.2166,285.9256,72.0125,288.0969,0.0015428,0.00024391,0.0,0 STARLINK-5145,1 54008U 22125AW  24139.84345626  .00024391  00000-0  15428-2 0  9997,2 54008  53.2166 285.9256 0000937  72.0125 288.0969 15.08899780 90045,6917.698,95.434,540.211,538.914,0.0
54008.0,STARLINK-5145,PAYLOAD,2024-05-19 02:36:08,15.08849086,0.0002302,53.2155,284.7337,86.9252,273.2003,-0.00044259,-7.327e-05,0.0,0 STARLINK-5145,1 54008U 22125AW  24140.10842613 -.00007327  00000-0 -44259-3 0  9993,2 54008  53.2155 284.7337 0002302  86.9252 273.2003 15.08849086 90086,6917.853,95.437,541.31,538.125,0.0
54008.0,STARLINK-5145,PAYLOAD,2024-05-19 13:43:49,15.08831295,0.0001586,53.2166,282.655,100.8372,259.2799,-0.00076986,-0.00012517,0.0,0 STARLINK-5145,1 54008U 22125AW  24140.57210596 -.00012517  00000-0 -76986-3 0  9992,2 54008  53.2166 282.6550 0001586 100.8372 259.2799 15.08831295 90106,6917.907,95.438,540.869,538.675,0.0
54008.0,STARLINK-5145,PAYLOAD,2024-05-19 18:29:59,15.08849376,9.72e-05,53.2151,281.7598,119.5414,240.5675,0.00049758,7.642e-05,0.0,0 STARLINK-5145,1 54008U 22125AW  24140.77082308  .00007642  00000-0  49758-3 0  9990,2 54008  53.2151 281.7598 0000972 119.5414 240.5675 15.08849376 90187,6917.852,95.437,540.389,539.044,0.0
54008.0,STARLINK-5145,PAYLOAD,2024-05-20 13:34:37,15.08846418,0.000124,53.2156,278.1947,123.9068,236.2042,0.0010079,0.00015792,0.0,0 STARLINK-5145,1 54008U 22125AW  24141.56570942  .00015792  00000-0  10079-2 0  9992,2 54008  53.2156 278.1947 0001240 123.9068 236.2042 15.08846418 90255,6917.861,95.437,540.584,538.868,0.0
54008.0,STARLINK-5145,PAYLOAD,2024-05-20 18:20:46,15.0886669,0.0001331,53.2155,277.3027,108.6214,251.4923,0.0016486,0.00026066,0.0,0 STARLINK-5145,1 54008U 22125AW  24141.76442674  .00026066  00000-0  16486-2 0  9998,2 54008  53.2155 277.3027 0001331 108.6214 251.4923 15.08866690 90338,6917.799,95.436,540.585,538.743,0.0
54008.0,STARLINK-5145,PAYLOAD,2024-05-21 13:25:24,15.08844852,0.0001091,53.2174,273.7321,95.1237,264.988,0.0014741,0.00023253,0.0,0 STARLINK-5145,1 54008U 22125AW  24142.55931362  .00023253  00000-0  14741-2 0  9990,2 54008  53.2174 273.7321 0001091  95.1237 264.9880 15.08844852 90454,6917.866,95.437,540.485,538.976,0.0
54008.0,STARLINK-5145,PAYLOAD,2024-05-21 15:00:47,15.08844423,9.9e-05,53.2165,273.4347,92.3773,267.7332,0.0014454,0.00022793,0.0,0 STARLINK-5145,1 54008U 22125AW  24142.62555339  .00022793  00000-0  14454-2 0  9993,2 54008  53.2165 273.4347 0000990  92.3773 267.7332 15.08844423 90413,6917.867,95.437,540.417,539.047,0.0
54008.0,STARLINK-5145,PAYLOAD,2024-05-22 11:40:49,15.08842226,0.0001452,53.2153,269.5737,63.1232,296.9908,0.00077193,0.00012019,0.0,0 STARLINK-5145,1 54008U 22125AW  24143.48667999  .00012019  00000-0  77193-3 0  9994,2 54008  53.2153 269.5737 0001452  63.1232 296.9908 15.08842226 90590,6917.874,95.437,540.743,538.734,0.0
54008.0,STARLINK-5145,PAYLOAD,2024-05-23 13:06:58,15.08872869,0.0002107,53.2186,264.8161,133.0696,227.0473,0.0010225,0.00016037,0.0,0 STARLINK-5145,1 54008U 22125AW  24144.54651022  .00016037  00000-0  10225-2 0  9998,2 54008  53.2186 264.8161 0002107 133.0696 227.0473 15.08872869 90750,6917.78,95.435,541.102,538.187,0.0
